STARLINK-1726           
1 46362U 20062AP  25048.30269137 -.00006425  00000+0 -41310-3 0  9991
2 46362  53.0530 261.6865 0001051  89.7424 270.3685 15.06374897247031
STARLINK-1739           
1 46363U 20062AQ  25048.58335648  .00221253  00000+0  42807-2 0  9990
2 46363  53.0404 240.6007 0012218 139.7292   8.6877 15.46373265247322
STARLINK-1763           
1 46364U 20062AR  25048.25003472  .00598241  15479-3  16843-2 0  9997
2 46364  53.0395 209.2680 0001817 290.8799  13.8524 15.92972654247688
STARLINK-1651           
1 46366U 20062AT  25047.86405686  .00000438  00000+0  48325-4 0  9996
2 46366  53.0524 263.6577 0001343  94.7405 265.3738 15.06395372246784
STARLINK-1689           
1 46372U 20062AZ  25048.37195487  .00042397  00000+0  14357-2 0  9991
2 46372  53.0453 289.7181 0009987 114.4844 245.7198 15.30149450246650
STARLINK-1711           
1 46374U 20062BB  25047.62179272  .01273117  98955-3  15878-2 0  9990
2 46374  53.0348 187.8850 0006990 299.8528 151.7761 16.07256069247916
STARLINK-1724           
1 46375U 20062BC  25047.85667938 -.00001603  00000+0 -88761-4 0  9990
2 46375  53.0523 263.6903 0001349  83.6330 276.4812 15.06397820246782
STARLINK-1742           
1 46376U 20062BD  25047.86596730  .00044868  00000+0  29285-2 0  9995
2 46376  53.0527 263.5889 0001420 115.2768 244.8369 15.07440298246781
STARLINK-1769           
1 46382U 20062BK  25047.88617415 -.00000193  00000+0  59091-5 0  9993
2 46382  53.0537 263.5589 0001277  90.7677 269.3458 15.06402893246792
STARLINK-1770           
1 46383U 20062BL  25048.40358039  .00036660  00000+0  24667-2 0  9992
2 46383  53.0559 306.2346 0002428  87.4961 272.6306 15.06407687246415
STARLINK-1771           
1 46384U 20062BM  25048.40727515  .00004738  00000+0  33657-3 0  9993
2 46384  53.0545 306.2173 0001401  83.6023 276.5126 15.06417246246411
STARLINK-1648           
1 46533U 20070B   25048.41833059  .00016049  00000+0  10929-2 0  9994
2 46533  53.0536 106.1700 0001417  88.9182 271.1969 15.06432075241453
STARLINK-1659           
1 46534U 20070C   25048.58335648  .00228062  00000+0  37035-2 0  9991
2 46534  53.0430  81.9822 0007333   2.5040 333.6346 15.51393684241815
STARLINK-1663           
1 46535U 20070D   25048.45516842  .00034315  00000+0  23085-2 0  9991
2 46535  53.0523 105.9992 0001023  87.2486 272.8620 15.06446583241454
STARLINK-1672           
1 46537U 20070F   25048.54734622  .00007136  00000+0  49732-3 0  9990
2 46537  53.0532 105.5885 0001538  78.2155 281.9007 15.06412300241165
STARLINK-1678           
1 46538U 20070G   25048.19348587  .00001226  00000+0  10123-3 0  9999
2 46538  53.0553 107.1776 0001579  85.8485 274.2685 15.06395870241104
STARLINK-1687           
1 46541U 20070K   25047.84146402 -.00005224  00000+0 -33220-3 0  9993
2 46541  53.0527  88.7566 0001422  91.1712 268.9439 15.06384546241622
STARLINK-1692           
1 46542U 20070L   25048.53753597  .00057682  00000+0  31062-2 0  9994
2 46542  53.0496 104.5593 0006467  19.3347 340.7889 15.14276687241482
STARLINK-1693           
1 46543U 20070M   25048.47150420  .00118278  00000+0  34653-2 0  9992
2 46543  53.0565  87.6051 0004029   1.7783 358.3231 15.34317364241724
STARLINK-1694           
1 46544U 20070N   25048.58335648  .00232038  00000+0  38486-2 0  9991
2 46544  53.0459  68.1331 0008589 283.5538  92.6555 15.50774795241994
STARLINK-1696           
1 46545U 20070P   25048.58335648  .00221562  00000+0  32344-2 0  9999
2 46545  53.0532  97.5784 0002678  41.6827 301.6934 15.54391562241571
STARLINK-1697           
1 46546U 20070Q   25048.58335648  .00308316  00000+0  31173-2 0  9992
2 46546  53.0442  78.6065 0008516 342.7771 359.9997 15.63764793241535
STARLINK-1700           
1 46549U 20070T   25048.44732734  .00067331  00000+0  37046-2 0  9991
2 46549  53.0504 104.5931 0006099 329.9348  30.1293 15.13437473241162
STARLINK-1701           
1 46550U 20070U   25048.25003472  .00757920  25537-3  19313-2 0  9995
2 46550  53.0424  72.3387 0011832  34.5705 230.5342 15.94723742241919
STARLINK-1664           
1 46553U 20070X   25048.49111613  .00012769  00000+0  87427-3 0  9992
2 46553  53.0552  75.8504 0001380  98.7694 261.3451 15.06412805241875
STARLINK-1671           
1 46554U 20070Y   25047.42145970  .01439789  14015-2  15724-2 0  9998
2 46554  53.0269  30.5451 0005063  81.7183  51.3646 16.09458099242410
STARLINK-1676           
1 46556U 20070AA  25048.53628133 -.00002739  00000+0 -16508-3 0  9990
2 46556  53.0527 105.6401 0001227  77.3866 282.7260 15.06396213241477
STARLINK-1679           
1 46557U 20070AB  25048.52004449  .00013955  00000+0  95358-3 0  9998
2 46557  53.0531  90.0834 0001514  86.5121 273.6041 15.06411721241686
STARLINK-1680           
1 46558U 20070AC  25048.52107278  .00031545  00000+0  21237-2 0  9992
2 46558  53.0529  90.7065 0001901  89.0730 271.0477 15.06460846241677
STARLINK-1681           
1 46559U 20070AD  25048.25003472  .01184928  00000+0  68156-1 0  9999
2 46559  53.0530  76.9012 0001464  74.9687 328.9469 15.09358207241837
STARLINK-1714           
1 46562U 20070AG  25048.46445759  .00002885  00000+0  21252-3 0  9992
2 46562  53.0546  86.4243 0001425 101.9806 258.1343 15.06398272241413
STARLINK-1730           
1 46563U 20070AH  25048.46806584 -.00010283  00000+0 -67255-3 0  9996
2 46563  53.0536  85.9425 0001598  89.3565 270.7607 15.06394088241730
STARLINK-1733           
1 46564U 20070AJ  25048.39068496  .00009217  00000+0  63679-3 0  9990
2 46564  53.0547  86.3673 0001140  91.5212 268.5907 15.06401821241721
STARLINK-1735           
1 46565U 20070AK  25048.49387952  .00021944  00000+0  14876-2 0  9998
2 46565  53.0525  85.8253 0001647  89.4652 270.6526 15.06397235241423
STARLINK-1740           
1 46566U 20070AL  25047.81567028  .00010552  00000+0  72641-3 0  9996
2 46566  53.0531  88.8744 0001417  96.4433 263.6717 15.06390172241628
STARLINK-1741           
1 46567U 20070AM  25048.24325232  .00009148  00000+0  63204-3 0  9998
2 46567  53.0548  86.9524 0001694  93.5990 266.5193 15.06413336241690
STARLINK-1531           
1 46572U 20070AS  25048.42843370  .00021898  00000+0  14837-2 0  9995
2 46572  53.0528 106.1127 0001643  96.4652 263.6524 15.06417200241453
STARLINK-1660           
1 46574U 20070AU  25048.39206377  .00009260  00000+0  63938-3 0  9999
2 46574  53.0545  91.2847 0001502  85.5995 274.5165 15.06422331241644
STARLINK-1675           
1 46575U 20070AV  25047.78432769  .00002889  00000+0  21270-3 0  9991
2 46575  53.0537  69.0125 0002011  85.2672 274.8547 15.06413046241890
STARLINK-1677           
1 46576U 20070AW  25048.11932189  .00035270  00000+0  23745-2 0  9999
2 46576  53.0537  92.5108 0001438 111.9627 248.1515 15.06405975241602
STARLINK-1682           
1 46577U 20070AX  25048.58335648  .00700882  20944-3  20853-2 0  9996
2 46577  53.0411  56.1141 0008436  61.2840 223.1034 15.91851558242141
STARLINK-1683           
1 46578U 20070AY  25048.58335648  .00031338  00000+0  18632-2 0  9999
2 46578  53.0523  75.4207 0000592  68.0240 261.6527 15.11023826241589
STARLINK-1705           
1 46579U 20070AZ  25048.39944276  .00017371  00000+0  11822-2 0  9997
2 46579  53.0535  91.2529 0001550  73.9733 286.1427 15.06400038241627
STARLINK-1708           
1 46580U 20070BA  25048.58335648  .00189674  00000+0  43086-2 0  9990
2 46580  53.0490  82.0719 0012466  15.6172 340.3927 15.41759352241809
STARLINK-1712           
1 46581U 20070BB  25048.40911145  .00004100  00000+0  29386-3 0  9992
2 46581  53.0538  86.2105 0001418  91.4542 268.6609 15.06411671241715
STARLINK-1728           
1 46582U 20070BC  25048.39436439  .00012649  00000+0  86614-3 0  9993
2 46582  53.0534  86.2756 0001251  96.3651 263.7480 15.06417197241716
STARLINK-1732           
1 46584U 20070BE  25048.58335648  .00906007  40248-3  17302-2 0  9995
2 46584  53.0321  43.1070 0008027  63.5883 274.8097 16.00017098242027
STARLINK-1736           
1 46585U 20070BF  25048.38335727  .00013930  00000+0  95171-3 0  9995
2 46585  53.0534  86.6752 0001740  91.8831 268.2358 15.06419573241402
STARLINK-1746           
1 46588U 20070BJ  25048.51968499  .00011993  00000+0  82219-3 0  9997
2 46588  53.0550  85.7135 0001704  86.2453 273.8731 15.06419553241748
STARLINK-1749           
1 46589U 20070BK  25048.58335648  .00332940  00000+0  18824-2 0  9997
2 46589  53.0423  41.4429 0004030  72.0501 293.1259 15.77629562242365
STARLINK-1755           
1 46591U 20070BM  25048.26082230  .01274002  94305-3  18551-2 0  9998
2 46591  53.0373  43.6645 0007841  45.2045 314.9623 16.04732830242309
STARLINK-1715           
1 46671U 20073B   25047.91668981  .00574577  00000+0  20556-2 0  9996
2 46671  53.0432 146.5926 0010056 308.8733 353.5521 15.86792038  5985
STARLINK-1716           
1 46672U 20073C   25048.54687025  .00001602  00000+0  12640-3 0  9997
2 46672  53.0548 170.5964 0001477  84.0791 276.0366 15.06413436239560
STARLINK-1718           
1 46674U 20073E   25048.57265811  .00019999  00000+0  13572-2 0  9999
2 46674  53.0534 170.4750 0000983  61.2097 298.8991 15.06414250239567
STARLINK-1773           
1 46679U 20073K   25048.50447103  .00020999  00000+0  14231-2 0  9998
2 46679  53.0541 150.7811 0001274 102.1755 257.9377 15.06435722239841
STARLINK-1775           
1 46681U 20073M   25048.54364152 -.00001559  00000+0 -85788-4 0  9997
2 46681  53.0543 185.6040 0001356 102.8573 257.2568 15.06395081239346
STARLINK-1780           
1 46684U 20073Q   25048.33734924  .21413134  12560-4  55689-3 0  9997
2 46684  53.0188 132.4030 0002651 323.8170 113.0914 16.45837126240071
STARLINK-1781           
1 46685U 20073R   25048.57315421  .00011811  00000+0  81011-3 0  9993
2 46685  53.0534 185.7430 0001354  85.3775 274.7369 15.06415706239341
STARLINK-1784           
1 46687U 20073T   25047.98476760  .00020330  00000+0  13795-2 0  9992
2 46687  53.0547 153.1170 0001355 104.8308 255.2831 15.06408445239752
